NORAD_CAT_ID,OBJECT_NAME,OBJECT_TYPE,EPOCH,MEAN_MOTION,ECCENTRICITY,INCLINATION,RA_OF_ASC_NODE,ARG_OF_PERICENTER,MEAN_ANOMALY,BSTAR,MEAN_MOTION_DOT,MEAN_MOTION_DDOT,TLE_LINE0,TLE_LINE1,TLE_LINE2,SEMIMAJOR_AXIS,PERIOD,APOGEE,PERIGEE,DECAYED
50816.0,STARLINK-3342,PAYLOAD,2023-09-03 22:21:49,15.08816131,7.44e-05,53.2177,329.1014,112.8838,247.2233,-0.00014128,-2.534e-05,0.0,0 STARLINK-3342,1 50816U 22001P   23246.93182364 -.00002534  00000-0 -14128-3 0  9993,2 50816  53.2177 329.1014 0000744 112.8838 247.2233 15.08816131 93136,6917.953,95.439,540.333,539.304,0.0
50816.0,STARLINK-3342,PAYLOAD,2023-09-04 12:40:18,15.08814695,8.46e-05,53.2176,326.4248,103.5013,256.6073,-0.00015284,-2.718e-05,0.0,0 STARLINK-3342,1 50816U 22001P   23247.52799319 -.00002718  00000-0 -15284-3 0  9991,2 50816  53.2176 326.4248 0000846 103.5013 256.6073 15.08814695 91945,6917.958,95.439,540.408,539.237,0.0
50816.0,STARLINK-3342,PAYLOAD,2023-09-04 14:15:40,15.08826021,0.0001167,53.2171,326.1263,92.1008,268.0118,-6.4015e-05,-1.306e-05,0.0,0 STARLINK-3342,1 50816U 22001P   23247.59422376 -.00001306  00000-0 -64015-4 0  9993,2 50816  53.2171 326.1263 0001167  92.1008 268.0118 15.08826021 93235,6917.923,95.438,540.595,538.981,0.0
50816.0,STARLINK-3342,PAYLOAD,2023-09-05 04:34:08,15.08835575,0.0001227,53.2171,323.4496,94.7905,265.3227,3.0136e-05,1.92e-06,0.0,0 STARLINK-3342,1 50816U 22001P   23248.19037920  .00000192  00000-0  30136-4 0  9994,2 50816  53.2171 323.4496 0001227  94.7905 265.3227 15.08835575 93329,6917.894,95.438,540.608,538.91,0.0
50816.0,STARLINK-3342,PAYLOAD,2023-09-05 09:20:17,15.08841063,0.0001208,53.2173,322.5584,89.3117,270.8014,9.8183e-05,1.275e-05,0.0,0 STARLINK-3342,1 50816U 22001P   23248.38909560  .00001275  00000-0  98183-4 0  9992,2 50816  53.2173 322.5584 0001208  89.3117 270.8014 15.08841063 93350,6917.877,95.437,540.578,538.906,0.0
50816.0,STARLINK-3342,PAYLOAD,2023-09-05 10:55:40,15.08846172,0.0001185,53.2171,322.2599,90.7698,269.343,7.3695e-05,8.85e-06,0.0,0 STARLINK-3342,1 50816U 22001P   23248.45533327  .00000885  00000-0  73695-4 0  9991,2 50816  53.2171 322.2599 0001185  90.7698 269.3430 15.08846172 92085,6917.862,95.437,540.546,538.907,0.0
50816.0,STARLINK-3342,PAYLOAD,2023-09-05 12:31:03,15.08844155,0.0001187,53.2161,321.9626,90.2355,269.8774,0.00012754,1.743e-05,0.0,0 STARLINK-3342,1 50816U 22001P   23248.52157321  .00001743  00000-0  12754-3 0  9997,2 50816  53.2161 321.9626 0001187  90.2355 269.8774 15.08844155 92094,6917.868,95.437,540.554,538.912,0.0
50816.0,STARLINK-3342,PAYLOAD,2023-09-07 09:01:52,15.08843725,0.0001356,53.2148,313.6362,72.8534,287.2606,0.00010666,1.41e-05,0.0,0 STARLINK-3342,1 50816U 22001P   23250.37629884  .00001410  00000-0  10666-3 0  9992,2 50816  53.2148 313.6362 0001356  72.8534 287.2606 15.08843725 93650,6917.869,95.437,540.672,538.796,0.0
50816.0,STARLINK-3342,PAYLOAD,2023-09-07 15:23:24,15.08844576,0.0001304,53.2159,312.4462,78.7133,281.4006,7.7196e-05,9.41e-06,0.0,0 STARLINK-3342,1 50816U 22001P   23250.64125745  .00000941  00000-0  77196-4 0  9999,2 50816  53.2159 312.4462 0001304  78.7133 281.4006 15.08844576 92411,6917.866,95.437,540.633,538.829,0.0
50816.0,STARLINK-3342,PAYLOAD,2023-09-08 10:28:02,15.088431,0.0001433,53.2169,308.8787,77.8149,282.3004,0.00013906,1.926e-05,0.0,0 STARLINK-3342,1 50816U 22001P   23251.43613656  .00001926  00000-0  13906-3 0  9992,2 50816  53.2169 308.8787 0001433  77.8149 282.3004 15.08843100 93816,6917.871,95.437,540.727,538.745,0.0
50816.0,STARLINK-3342,PAYLOAD,2023-09-08 15:14:11,15.08848382,0.0001364,53.2171,307.9854,85.1615,274.9533,0.00017247,2.459e-05,0.0,0 STARLINK-3342,1 50816U 22001P   23251.63485193  .00002459  00000-0  17247-3 0  9991,2 50816  53.2171 307.9854 0001364  85.1615 274.9533 15.08848382 92569,6917.855,95.437,540.663,538.776,0.0
50816.0,STARLINK-3342,PAYLOAD,2023-09-08 23:11:07,15.08835234,0.000129,53.2161,306.4998,81.6854,278.4285,3.9608e-05,3.42e-06,0.0,0 STARLINK-3342,1 50816U 22001P   23251.96606184  .00000342  00000-0  39608-4 0  9997,2 50816  53.2161 306.4998 0001290  81.6854 278.4285 15.08835234 93897,6917.895,95.438,540.652,538.868,0.0
50816.0,STARLINK-3342,PAYLOAD,2023-09-09 13:29:35,15.0884042,0.0001327,53.2162,303.823,84.1715,275.9429,8.9951e-05,1.144e-05,0.0,0 STARLINK-3342,1 50816U 22001P   23252.56222075  .00001144  00000-0  89951-4 0  9994,2 50816  53.2162 303.8230 0001327  84.1715 275.9429 15.08840420 92707,6917.879,95.438,540.662,538.826,0.0
50816.0,STARLINK-3342,PAYLOAD,2023-09-10 02:12:40,15.08841027,0.0001317,53.2156,301.4447,83.6359,276.4783,0.00012201,1.654e-05,0.0,0 STARLINK-3342,1 50816U 22001P   23253.09214069  .00001654  00000-0  12201-3 0  9996,2 50816  53.2156 301.4447 0001317  83.6359 276.4783 15.08841027 94065,6917.877,95.437,540.653,538.831,0.0
50816.0,STARLINK-3342,PAYLOAD,2023-09-10 10:09:36,15.08848634,0.0001335,53.2156,299.958,86.0689,274.0456,0.00014184,1.971e-05,0.0,0 STARLINK-3342,1 50816U 22001P   23253.42333646  .00001971  00000-0  14184-3 0  9990,2 50816  53.2156 299.9580 0001335  86.0689 274.0456 15.08848634 92832,6917.854,95.437,540.643,538.795,0.0
50816.0,STARLINK-3342,PAYLOAD,2023-09-11 02:03:28,15.08836598,0.0001407,53.2155,296.9844,89.1496,270.9658,9.5606e-05,1.234e-05,0.0,0 STARLINK-3342,1 50816U 22001P   23254.08574294  .00001234  00000-0  95606-4 0  9990,2 50816  53.2155 296.9844 0001407  89.1496 270.9658 15.08836598 94210,6917.891,95.438,540.729,538.782,0.0
50816.0,STARLINK-3342,PAYLOAD,2023-09-11 11:35:46,15.08838334,0.0001408,53.2157,295.2004,91.3537,268.7616,4.6307e-05,4.49e-06,0.0,0 STARLINK-3342,1 50816U 22001P   23254.48318244  .00000449  00000-0  46307-4 0  9996,2 50816  53.2157 295.2004 0001408  91.3537 268.7616 15.08838334 92996,6917.885,95.438,540.725,538.776,0.0
50816.0,STARLINK-3342,PAYLOAD,2023-09-12 09:51:10,15.0884676,0.000155,53.2169,291.0374,99.8694,260.2474,8.7234e-05,1.101e-05,0.0,0 STARLINK-3342,1 50816U 22001P   23255.41053979  .00001101  00000-0  87234-4 0  9991,2 50816  53.2169 291.0374 0001550  99.8694 260.2474 15.08846760 94418,6917.86,95.437,540.797,538.652,0.0
50816.0,STARLINK-3342,PAYLOAD,2023-09-12 11:26:33,15.08847148,0.0001464,53.2167,290.7401,96.8198,263.296,0.00010764,1.426e-05,0.0,0 STARLINK-3342,1 50816U 22001P   23255.47677897  .00001426  00000-0  10764-3 0  9991,2 50816  53.2167 290.7401 0001464  96.8198 263.2960 15.08847148 93146,6917.859,95.437,540.736,538.711,0.0
50816.0,STARLINK-3342,PAYLOAD,2023-09-13 11:17:20,15.0884985,0.0001455,53.2155,286.2794,93.5799,266.5359,0.00021325,3.108e-05,0.0,0 STARLINK-3342,1 50816U 22001P   23256.47037658  .00003108  00000-0  21325-3 0  9991,2 50816  53.2155 286.2794 0001455  93.5799 266.5359 15.08849850 93295,6917.85,95.437,540.722,538.709,0.0
50816.0,STARLINK-3342,PAYLOAD,2023-09-13 19:14:16,15.08836181,0.0001636,53.2155,284.7929,83.9336,276.1842,3.1896e-06,-2.37e-06,0.0,0 STARLINK-3342,1 50816U 22001P   23256.80158497 -.00000237  00000-0  31896-5 0  9990,2 50816  53.2155 284.7929 0001636  83.9336 276.1842 15.08836181 93342,6917.892,95.438,540.889,538.625,0.0
50816.0,STARLINK-3342,PAYLOAD,2023-09-14 01:35:49,15.08833283,0.0001722,53.2152,283.6054,83.2891,276.8298,-3.2965e-05,-8.13e-06,0.0,0 STARLINK-3342,1 50816U 22001P   23257.06654774 -.00000813  00000-0 -32965-4 0  9996,2 50816  53.2152 283.6054 0001722  83.2891 276.8298 15.08833283 94669,6917.901,95.438,540.957,538.575,0.0
50816.0,STARLINK-3342,PAYLOAD,2023-09-14 09:32:46,15.08827651,0.0001571,53.2164,282.1152,86.5022,273.615,-8.7304e-05,-1.677e-05,0.0,0 STARLINK-3342,1 50816U 22001P   23257.39776000 -.00001677  00000-0 -87304-4 0  9995,2 50816  53.2164 282.1152 0001571  86.5022 273.6150 15.08827651 94719,6917.918,95.438,540.87,538.696,0.0
50816.0,STARLINK-3342,PAYLOAD,2023-09-14 19:05:05,15.08832797,0.0001645,53.2167,280.3302,87.9415,272.1765,-2.5582e-05,-6.95e-06,0.0,0 STARLINK-3342,1 50816U 22001P   23257.79519798 -.00000695  00000-0 -25582-4 0  9997,2 50816  53.2167 280.3302 0001645  87.9415 272.1765 15.08832797 93499,6917.902,95.438,540.905,538.629,0.0
50816.0,STARLINK-3342,PAYLOAD,2023-09-15 07:48:09,15.08845081,0.0001425,53.216,277.9516,87.8606,272.2549,2.5806e-05,1.23e-06,0.0,0 STARLINK-3342,1 50816U 22001P   23258.32510996  .00000123  00000-0  25806-4 0  9991,2 50816  53.2160 277.9516 0001425  87.8606 272.2549 15.08845081 94850,6917.865,95.437,540.716,538.744,0.0
50816.0,STARLINK-3342,PAYLOAD,2023-09-16 01:17:24,15.088408,0.0001473,53.2144,274.6806,82.0954,278.0206,0.00037399,5.669e-05,0.0,0 STARLINK-3342,1 50816U 22001P   23259.05375532  .00005669  00000-0  37399-3 0  9996,2 50816  53.2144 274.6806 0001473  82.0954 278.0206 15.08840800 94964,6917.878,95.438,540.762,538.724,0.0
50816.0,STARLINK-3342,PAYLOAD,2023-09-16 07:38:56,15.08853665,0.0001499,53.2142,273.4914,80.207,279.9092,0.00050732,7.798e-05,0.0,0 STARLINK-3342,1 50816U 22001P   23259.31871192  .00007798  00000-0  50732-3 0  9999,2 50816  53.2142 273.4914 0001499  80.2070 279.9092 15.08853665 93725,6917.839,95.437,540.741,538.667,0.0
50816.0,STARLINK-3342,PAYLOAD,2023-09-17 01:08:11,15.08847295,0.0001697,53.2159,270.2231,91.1351,268.9835,0.00031727,4.766e-05,0.0,0 STARLINK-3342,1 50816U 22001P   23260.04735171  .00004766  00000-0  31727-3 0  9992,2 50816  53.2159 270.2231 0001697  91.1351 268.9835 15.08847295 95113,6917.858,95.437,540.897,538.549,0.0
50816.0,STARLINK-3342,PAYLOAD,2023-09-17 07:29:43,15.08846555,0.0001687,53.2162,269.0329,98.0665,262.0519,8.4775e-05,1.062e-05,0.0,0 STARLINK-3342,1 50816U 22001P   23260.31230994  .00001062  00000-0  84775-4 0  9993,2 50816  53.2162 269.0329 0001687  98.0665 262.0519 15.08846555 93877,6917.86,95.437,540.892,538.558,0.0
50816.0,STARLINK-3342,PAYLOAD,2023-09-17 17:02:02,15.08843329,0.0001673,53.2159,267.2484,96.1703,263.948,2.2789e-05,7.5e-07,0.0,0 STARLINK-3342,1 50816U 22001P   23260.70975015  .00000075  00000-0  22789-4 0  9996,2 50816  53.2159 267.2484 0001673  96.1703 263.9480 15.08843329 95215,6917.87,95.437,540.893,538.578,0.0
